NORAD_CAT_ID,OBJECT_NAME,OBJECT_TYPE,EPOCH,MEAN_MOTION,ECCENTRICITY,INCLINATION,RA_OF_ASC_NODE,ARG_OF_PERICENTER,MEAN_ANOMALY,BSTAR,MEAN_MOTION_DOT,MEAN_MOTION_DDOT,TLE_LINE0,TLE_LINE1,TLE_LINE2,SEMIMAJOR_AXIS,PERIOD,APOGEE,PERIGEE,DECAYED
52577.0,STARLINK-3836,PAYLOAD,2024-05-11 21:23:08,15.08778449,0.0001736,53.2161,247.4905,146.1496,213.9607,-0.0011755,-0.00018916,0.0,0 STARLINK-3836,1 52577U 22051AT  24132.89107381 -.00018916  00000-0 -11755-2 0  9993,2 52577  53.2161 247.4905 0001736 146.1496 213.9607 15.08778449110783,6918.069,95.441,541.135,538.733,0.0
52577.0,STARLINK-3836,PAYLOAD,2024-05-12 11:41:44,15.08699728,0.0001141,53.2175,244.8201,84.2294,275.8828,-0.001776,-0.00028333,0.0,0 STARLINK-3836,1 52577U 22051AT  24133.48731816 -.00028333  00000-0 -17760-2 0  9991,2 52577  53.2175 244.8201 0001141  84.2294 275.8828 15.08699728110870,6918.309,95.446,540.964,539.385,0.0
52577.0,STARLINK-3836,PAYLOAD,2024-05-12 16:27:55,15.0869777,0.0001677,53.2171,243.9273,79.6354,280.4827,-0.0016079,-0.00025688,0.0,0 STARLINK-3836,1 52577U 22051AT  24133.68605354 -.00025688  00000-0 -16079-2 0  9992,2 52577  53.2171 243.9273 0001677  79.6354 280.4827 15.08697770110904,6918.315,95.447,541.34,539.02,0.0
52577.0,STARLINK-3836,PAYLOAD,2024-05-13 00:24:49,15.08765036,9.8e-05,53.2169,242.44,103.1474,256.9627,-0.00058769,-9.609e-05,0.0,0 STARLINK-3836,1 52577U 22051AT  24134.01723658 -.00009609  00000-0 -58769-3 0  9996,2 52577  53.2169 242.4400 0000980 103.1474 256.9627 15.08765036110951,6918.11,95.442,540.653,539.297,0.0
52577.0,STARLINK-3836,PAYLOAD,2024-05-13 13:07:51,15.08856576,0.0001342,53.2169,240.0649,105.0334,255.0807,3.6611e-05,2.95e-06,0.0,0 STARLINK-3836,1 52577U 22051AT  24134.54712432  .00000295  00000-0  36611-4 0  9995,2 52577  53.2169 240.0649 0001342 105.0334 255.0807 15.08856576110960,6917.83,95.437,540.623,538.766,0.0
52577.0,STARLINK-3836,PAYLOAD,2024-05-13 16:18:37,15.0886224,0.0001623,53.2179,239.4674,109.5079,250.6089,0.00026802,3.983e-05,0.0,0 STARLINK-3836,1 52577U 22051AT  24134.67960280  .00003983  00000-0  26802-3 0  9992,2 52577  53.2179 239.4674 0001623 109.5079 250.6089 15.08862240110988,6917.812,95.436,540.8,538.555,0.0
52577.0,STARLINK-3836,PAYLOAD,2024-05-14 12:58:36,15.08846117,0.0001201,53.2182,235.6016,107.4132,252.6992,0.0015279,0.00024116,0.0,0 STARLINK-3836,1 52577U 22051AT  24135.54069991  .00024116  00000-0  15279-2 0  9994,2 52577  53.2182 235.6016 0001201 107.4132 252.6992 15.08846117111182,6917.862,95.437,540.558,538.896,0.0
52577.0,STARLINK-3836,PAYLOAD,2024-05-15 06:27:51,15.0887987,0.0002071,53.214,232.3305,98.2013,261.9214,-1.7136e-05,-5.61e-06,0.0,0 STARLINK-3836,1 52577U 22051AT  24136.26934948 -.00000561  00000-0 -17136-4 0  9993,2 52577  53.2140 232.3305 0002071  98.2013 261.9214 15.08879870111296,6917.759,95.435,541.056,538.191,0.0
52577.0,STARLINK-3836,PAYLOAD,2024-05-15 12:49:24,15.08876559,0.0001761,53.2188,231.1416,107.6242,252.4943,-0.00012581,-2.292e-05,0.0,0 STARLINK-3836,1 52577U 22051AT  24136.53430645 -.00002292  00000-0 -12581-3 0  9999,2 52577  53.2188 231.1416 0001761 107.6242 252.4943 15.08876559111264,6917.769,95.435,540.852,538.415,0.0
52577.0,STARLINK-3836,PAYLOAD,2024-05-15 16:00:08,15.08902031,0.0001458,53.2188,230.5453,126.4588,233.6538,7.1514e-05,8.52e-06,0.0,0 STARLINK-3836,1 52577U 22051AT  24136.66675962  .00000852  00000-0  71514-4 0  9996,2 52577  53.2188 230.5453 0001458 126.4588 233.6538 15.08902031111359,6917.691,95.434,540.564,538.547,0.0
52577.0,STARLINK-3836,PAYLOAD,2024-05-16 12:40:06,15.08906946,0.0001291,53.2175,226.6805,85.2431,274.8708,-0.00016325,-2.89e-05,0.0,0 STARLINK-3836,1 52577U 22051AT  24137.52785190 -.00002890  00000-0 -16325-3 0  9991,2 52577  53.2175 226.6805 0001291  85.2431 274.8708 15.08906946111485,6917.676,95.433,540.434,538.648,0.0
52577.0,STARLINK-3836,PAYLOAD,2024-05-17 12:30:56,15.08828179,0.0001118,53.2164,222.2142,85.4563,274.6556,-0.000326,-5.471e-05,0.0,0 STARLINK-3836,1 52577U 22051AT  24138.52148364 -.00005471  00000-0 -32600-3 0  9990,2 52577  53.2164 222.2142 0001118  85.4563 274.6556 15.08828179111632,6917.917,95.438,540.555,539.008,0.0
52577.0,STARLINK-3836,PAYLOAD,2024-05-17 22:03:15,15.0883144,0.0001376,53.2179,220.4363,96.7537,263.3612,-0.0002202,-3.79e-05,0.0,0 STARLINK-3836,1 52577U 22051AT  24138.91892412 -.00003790  00000-0 -22020-3 0  9990,2 52577  53.2179 220.4363 0001376  96.7537 263.3612 15.08831440111627,6917.907,95.438,540.723,538.82,0.0
52577.0,STARLINK-3836,PAYLOAD,2024-05-18 12:21:41,15.08863745,0.0001377,53.2166,217.7623,87.206,272.9089,0.00019256,2.78e-05,0.0,0 STARLINK-3836,1 52577U 22051AT  24139.51506373  .00002780  00000-0  19256-3 0  9998,2 52577  53.2166 217.7623 0001377  87.2060 272.9089 15.08863745111782,6917.808,95.436,540.625,538.72,0.0
52577.0,STARLINK-3836,PAYLOAD,2024-05-18 21:54:00,15.08851401,0.0001714,53.2168,215.9728,66.1116,294.0056,6.4611e-05,7.41e-06,0.0,0 STARLINK-3836,1 52577U 22051AT  24139.91250799  .00000741  00000-0  64611-4 0  9991,2 52577  53.2168 215.9728 0001714  66.1116 294.0056 15.08851401111777,6917.846,95.437,540.896,538.525,0.0
52577.0,STARLINK-3836,PAYLOAD,2024-05-19 13:47:54,15.08824183,0.0001901,53.2172,213.0022,68.6619,291.4575,7.6123e-05,9.23e-06,0.0,0 STARLINK-3836,1 52577U 22051AT  24140.57493450  .00000923  00000-0  76123-4 0  9991,2 52577  53.2172 213.0022 0001901  68.6619 291.4575 15.08824183111876,6917.929,95.439,541.109,538.479,0.0
52577.0,STARLINK-3836,PAYLOAD,2024-05-20 04:06:21,15.08842974,9.13e-05,53.2155,210.3229,74.1169,285.9924,0.00010402,1.368e-05,0.0,0 STARLINK-3836,1 52577U 22051AT  24141.17108161  .00001368  00000-0  10402-3 0  9991,2 52577  53.2155 210.3229 0000913  74.1169 285.9924 15.08842974112033,6917.871,95.437,540.368,539.105,0.0
52577.0,STARLINK-3836,PAYLOAD,2024-05-20 12:03:15,15.08871227,0.0001303,53.216,208.8394,70.5842,289.5291,0.00026109,3.873e-05,0.0,0 STARLINK-3836,1 52577U 22051AT  24141.50226610  .00003873  00000-0  26109-3 0  9992,2 52577  53.2160 208.8394 0001303  70.5842 289.5291 15.08871227112081,6917.785,95.436,540.551,538.749,0.0
52577.0,STARLINK-3836,PAYLOAD,2024-05-20 13:38:39,15.08870805,0.000123,53.2159,208.5419,75.9307,284.1822,0.00047262,7.248e-05,0.0,0 STARLINK-3836,1 52577U 22051AT  24141.56850772  .00007248  00000-0  47262-3 0  9993,2 52577  53.2159 208.5419 0001230  75.9307 284.1822 15.08870805112024,6917.786,95.436,540.502,538.8,0.0
52577.0,STARLINK-3836,PAYLOAD,2024-05-21 11:54:04,15.08840441,0.000124,53.2165,204.3769,76.8347,283.2784,6.6149e-05,7.65e-06,0.0,0 STARLINK-3836,1 52577U 22051AT  24142.49588007  .00000765  00000-0  66149-4 0  9998,2 52577  53.2165 204.3769 0001240  76.8347 283.2784 15.08840441112231,6917.879,95.438,540.602,538.886,0.0
52577.0,STARLINK-3836,PAYLOAD,2024-05-21 19:50:59,15.08841582,0.0001298,53.2166,202.8908,76.7065,283.4071,7.2508e-05,8.66e-06,0.0,0 STARLINK-3836,1 52577U 22051AT  24142.82707996  .00000866  00000-0  72508-4 0  9993,2 52577  53.2166 202.8908 0001298  76.7065 283.4071 15.08841582112215,6917.876,95.437,540.638,538.843,0.0
52577.0,STARLINK-3836,PAYLOAD,2024-05-22 10:09:27,15.08844306,0.0001681,53.2159,200.2182,65.3394,294.7773,-2.9339e-05,-7.55e-06,0.0,0 STARLINK-3836,1 52577U 22051AT  24143.42323994 -.00000755  00000-0 -29339-4 0  9995,2 52577  53.2159 200.2182 0001681  65.3394 294.7773 15.08844306112309,6917.867,95.437,540.895,538.569,0.0
52577.0,STARLINK-3836,PAYLOAD,2024-05-23 10:00:15,15.08841886,0.0001417,53.2159,195.7575,88.2715,271.8439,0.00013497,1.861e-05,0.0,0 STARLINK-3836,1 52577U 22051AT  24144.41684160  .00001861  00000-0  13497-3 0  9994,2 52577  53.2159 195.7575 0001417  88.2715 271.8439 15.08841886112520,6917.875,95.437,540.72,538.759,0.0
52577.0,STARLINK-3836,PAYLOAD,2024-05-24 09:51:01,15.08848229,0.0001494,53.2152,191.2969,78.207,281.909,0.00018959,2.731e-05,0.0,0 STARLINK-3836,1 52577U 22051AT  24145.41043788  .00002731  00000-0  18959-3 0  9995,2 52577  53.2152 191.2969 0001494  78.2070 281.9090 15.08848229112601,6917.855,95.437,540.754,538.687,0.0
52577.0,STARLINK-3836,PAYLOAD,2024-05-25 09:41:49,15.0883637,0.0001409,53.2156,186.8355,94.6355,265.4798,2.9296e-06,-2.41e-06,0.0,0 STARLINK-3836,1 52577U 22051AT  24146.40404381 -.00000241  00000-0  29296-5 0  9998,2 52577  53.2156 186.8355 0001409  94.6355 265.4798 15.08836370112828,6917.891,95.438,540.731,538.782,0.0
52577.0,STARLINK-3836,PAYLOAD,2024-05-26 07:57:13,15.08830242,0.0001869,53.2163,182.6808,131.2878,228.8275,-0.00010212,-1.913e-05,0.0,0 STARLINK-3836,1 52577U 22051AT  24147.33140508 -.00001913  00000-0 -10212-3 0  9993,2 52577  53.2163 182.6808 0001869 131.2878 228.8275 15.08830242112893,6917.91,95.438,541.068,538.482,0.0
52577.0,STARLINK-3836,PAYLOAD,2024-05-26 19:04:55,15.08837977,0.0001769,53.2162,180.6027,126.2608,233.8547,-1.6665e-05,-5.53e-06,0.0,0 STARLINK-3836,1 52577U 22051AT  24147.79508375 -.00000553  00000-0 -16665-4 0  9991,2 52577  53.2162 180.6027 0001769 126.2608 233.8547 15.08837977113034,6917.887,95.438,540.975,538.528,0.0
52577.0,STARLINK-3836,PAYLOAD,2024-05-27 09:23:23,15.0883572,0.0001666,53.2176,177.9244,129.174,230.9401,6.6848e-05,7.76e-06,0.0,0 STARLINK-3836,1 52577U 22051AT  24148.39124987  .00000776  00000-0  66848-4 0  9994,2 52577  53.2176 177.9244 0001666 129.1740 230.9401 15.08835720113057,6917.893,95.438,540.911,538.606,0.0
52577.0,STARLINK-3836,PAYLOAD,2024-05-28 04:28:01,15.08840884,0.0001303,53.2162,174.3453,84.939,275.1751,0.00011698,1.574e-05,0.0,0 STARLINK-3836,1 52577U 22051AT  24149.18612692  .00001574  00000-0  11698-3 0  9996,2 52577  53.2162 174.3453 0001303  84.9390 275.1751 15.08840884113249,6917.878,95.437,540.644,538.841,0.0
52577.0,STARLINK-3836,PAYLOAD,2024-05-28 09:14:10,15.08842891,0.0001291,53.2162,173.4531,83.9069,276.207,0.00012779,1.747e-05,0.0,0 STARLINK-3836,1 52577U 22051AT  24149.38484542  .00001747  00000-0  12779-3 0  9992,2 52577  53.2162 173.4531 0001291  83.9069 276.2070 15.08842891113206,6917.872,95.437,540.63,538.843,0.0
